{
    "links": {
        "self": "http://www.neowsapp.com/rest/v1/neo/3653413?api_key=iIulBulltgU6a56xZRHN4H3l9WmuAYTsLGpBGhQ2"
    },
    "id": "3653413",
    "neo_reference_id": "3653413",
    "name": "(2013 VJ2)",
    "designation": "2013 VJ2",
    "nasa_jpl_url": "http://ssd.jpl.nasa.gov/sbdb.cgi?sstr=3653413",
    "absolute_magnitude_h": 21.6,
    "estimated_diameter": {
        "kilometers": {
            "estimated_diameter_min": 0.1272198785,
            "estimated_diameter_max": 0.2844722965
        },
        "meters": {
            "estimated_diameter_min": 127.2198785394,
            "estimated_diameter_max": 284.4722965033
        },
        "miles": {
            "estimated_diameter_min": 0.0790507431,
            "estimated_diameter_max": 0.1767628354
        },
        "feet": {
            "estimated_diameter_min": 417.3880663071,
            "estimated_diameter_max": 933.3080892598
        }
    },
    "is_potentially_hazardous_asteroid": false,
    "close_approach_data": [
        {
            "close_approach_date": "2011-11-18",
            "close_approach_date_full": "2011-Nov-18 08:01",
            "epoch_date_close_approach": 1321603260000,
            "relative_velocity": {
                "kilometers_per_second": "21.8028936793",
                "kilometers_per_hour": "78490.417245597",
                "miles_per_hour": "48770.8928712989"
            },
            "miss_distance": {
                "astronomical": "0.4741801414",
                "lunar": "184.4560750046",
                "kilometers": "70936339.149738818",
                "miles": "44077797.2330309684"
            },
            "orbiting_body": "Earth"
        },
        {
            "close_approach_date": "2013-11-09",
            "close_approach_date_full": "2013-Nov-09 08:50",
            "epoch_date_close_approach": 1383987000000,
            "relative_velocity": {
                "kilometers_per_second": "20.4233291956",
                "kilometers_per_hour": "73523.9851043238",
                "miles_per_hour": "45684.9450777394"
            },
            "miss_distance": {
                "astronomical": "0.1415338537",
                "lunar": "55.0566690893",
                "kilometers": "21173163.046411619",
                "miles": "13156393.4469695822"
            },
            "orbiting_body": "Earth"
        }
    ],
    "orbital_data": {
        "orbit_id": "19",
        "orbit_determination_date": "2017-04-06 08:43:52",
        "first_observation_date": "2013-11-02",
        "last_observation_date": "2013-11-26",
        "data_arc_in_days": 24,
        "observations_used": 114,
        "orbit_uncertainty": "7",
        "minimum_orbit_intersection": ".140526",
        "jupiter_tisserand_invariant": "4.187",
        "epoch_osculation": "2459000.5",
        "eccentricity": ".2803195833625606",
        "semi_major_axis": "1.54561256024512",
        "inclination": "38.33246810330667",
        "ascending_node_longitude": "226.2710069240541",
        "orbital_period": "701.8582098708877",
        "perihelion_distance": "1.112347091317267",
        "perihelion_argument": "202.8379209659925",
        "aphelion_distance": "1.978878029172972",
        "perihelion_time": "2458733.511643252929",
        "mean_anomaly": "136.9447661609985",
        "mean_motion": ".5129241133564925",
        "equinox": "J2000",
        "orbit_class": {
            "orbit_class_type": "AMO",
            "orbit_class_description": "Near-Earth asteroid orbits similar to that of 1221 Amor",
            "orbit_class_range": "1.017 AU < q (perihelion) < 1.3 AU"
        }
    },
    "is_sentry_object": false
}